*******************************************************************************
Ephemeris / WWW_USER Mon Mar 10 07:20:07 2025 Pasadena, USA      / Horizons    
*******************************************************************************
Target body name: (2018 PC20)                     {source: JPL#4}
Center body name: Earth (399)                     {source: DE441}
Center-site name: Mauna Kea
*******************************************************************************
Start time      : A.D. 2019-Jan-16 04:13:00.0000 UT      
Stop  time      : A.D. 2019-Jan-16 16:49:00.0000 UT      
Step-size       : 1 minutes
*******************************************************************************
Target pole/equ : undefined
Target radii    : undefined                                                    
Center geodetic : 204.5278, 19.8260847, 4.21024   {E-lon(deg),Lat(deg),Alt(km)}
Center cylindric: 204.5278, 6006.35451, 2151.0229 {E-lon(deg),Dxy(km),Dz(km)}
Center pole/equ : ITRF93                          {East-longitude positive}
Center radii    : 6378.137, 6378.137, 6356.752 km {Equator_a, b, pole_c}       
Target primary  : Sun
Vis. interferer : MOON (R_eq= 1737.400) km        {source: DE441}
Rel. light bend : Sun                             {source: DE441}
Rel. lght bnd GM: 1.3271E+11 km^3/s^2                                          
Small-body perts: Yes                             {source: SB441-N16}
Atmos refraction: NO (AIRLESS)
RA format       : HMS
Time format     : CAL 
Calendar mode   : Mixed Julian/Gregorian
RTS-only print  : NO       
EOP file        : eop.250307.p250603                                           
EOP coverage    : DATA-BASED 1962-JAN-20 TO 2025-MAR-07. PREDICTS-> 2025-JUN-02
Units conversion: 1 au= 149597870.700 km, c= 299792.458 km/s, 1 day= 86400.0 s 
Table cut-offs 1: Elevation (-90.0deg=NO ),Airmass (>38.000=NO), Daylight (YES)
Table cut-offs 2: Solar elongation (  0.0,180.0=NO ),Local Hour Angle( 0.0=NO )
Table cut-offs 3: RA/DEC angular rate (     0.0=NO )                           
*******************************************************************************
Initial IAU76/J2000 heliocentric ecliptic osculating elements (au, days, deg.):
  EPOCH=  2458343.5 ! 2018-Aug-13.00 (TDB)         Residual RMS= .24519        
   EC= .404352607301711    QR= 1.018354806317198   TP= 2458318.6524357731      
   OM= 139.299704166656    W=  153.5303944744985   IN= 8.986086735514593       
  Equivalent ICRF heliocentric cartesian coordinates (au, au/d):
   X= 8.116079301925467E-01  Y=-6.140581064636024E-01  Z=-2.698058679324596E-01
  VX= 1.436448164656351E-02 VY= 1.329561442287599E-02 VZ= 2.429594529488231E-03
Asteroid physical parameters (km, seconds, rotational period in hours):        
   GM= n.a.                RAD= n.a.               ROTPER= n.a.                
   H= 25.2                 G= .150                 B-V= n.a.                   
                           ALBEDO= n.a.            STYP= n.a.                  
*******************************************************************************
 Date__(UT)__HR:MN     R.A._________(ICRF)_________DEC
******************************************************
$$SOE
 2019-Jan-16 08:19  m  01 49 16.392573 +00 03 52.49409
 2019-Jan-16 08:20  m  01 49 16.453769 +00 03 53.08027
 2019-Jan-16 08:21  m  01 49 16.514970 +00 03 53.66645
 2019-Jan-16 08:22  m  01 49 16.576178 +00 03 54.25263
 2019-Jan-16 08:23  m  01 49 16.637391 +00 03 54.83880
 2019-Jan-16 08:24  m  01 49 16.698611 +00 03 55.42498
 2019-Jan-16 08:25  m  01 49 16.759836 +00 03 56.01115
 2019-Jan-16 08:26  m  01 49 16.821067 +00 03 56.59731
 2019-Jan-16 08:27  m  01 49 16.882304 +00 03 57.18348
 2019-Jan-16 08:28  m  01 49 16.943547 +00 03 57.76964
 2019-Jan-16 08:29  m  01 49 17.004795 +00 03 58.35580
 2019-Jan-16 08:30  m  01 49 17.066050 +00 03 58.94196
 2019-Jan-16 08:31  m  01 49 17.127311 +00 03 59.52812
 2019-Jan-16 08:32  m  01 49 17.188577 +00 04 00.11427
 2019-Jan-16 08:33  m  01 49 17.249850 +00 04 00.70042
 2019-Jan-16 08:34  m  01 49 17.311129 +00 04 01.28657
 2019-Jan-16 08:35  m  01 49 17.372414 +00 04 01.87272
 2019-Jan-16 08:36  m  01 49 17.433704 +00 04 02.45887
 2019-Jan-16 08:37  m  01 49 17.495001 +00 04 03.04501
 2019-Jan-16 08:38  m  01 49 17.556304 +00 04 03.63115
 2019-Jan-16 08:39  m  01 49 17.617613 +00 04 04.21729
 2019-Jan-16 08:40  m  01 49 17.678928 +00 04 04.80343
 2019-Jan-16 08:41  m  01 49 17.740249 +00 04 05.38956
 2019-Jan-16 08:42  m  01 49 17.801576 +00 04 05.97569
 2019-Jan-16 08:43  m  01 49 17.862909 +00 04 06.56182
 2019-Jan-16 08:44  m  01 49 17.924249 +00 04 07.14795
 2019-Jan-16 08:45  m  01 49 17.985595 +00 04 07.73407
 2019-Jan-16 08:46  m  01 49 18.046946 +00 04 08.32019
 2019-Jan-16 08:47  m  01 49 18.108304 +00 04 08.90632
 2019-Jan-16 08:48  m  01 49 18.169668 +00 04 09.49243
 2019-Jan-16 08:49  m  01 49 18.231039 +00 04 10.07855
 2019-Jan-16 08:50  m  01 49 18.292415 +00 04 10.66466
 2019-Jan-16 08:51  m  01 49 18.353798 +00 04 11.25077
 2019-Jan-16 08:52  m  01 49 18.415187 +00 04 11.83688
 2019-Jan-16 08:53  m  01 49 18.476583 +00 04 12.42299
 2019-Jan-16 08:54  m  01 49 18.537984 +00 04 13.00910
 2019-Jan-16 08:55  m  01 49 18.599392 +00 04 13.59520
 2019-Jan-16 08:56  m  01 49 18.660806 +00 04 14.18130
 2019-Jan-16 08:57  m  01 49 18.722227 +00 04 14.76740
 2019-Jan-16 08:58  m  01 49 18.783653 +00 04 15.35349
 2019-Jan-16 08:59  m  01 49 18.845086 +00 04 15.93959
 2019-Jan-16 09:00  m  01 49 18.906526 +00 04 16.52568
 2019-Jan-16 09:01  m  01 49 18.967972 +00 04 17.11177
 2019-Jan-16 09:02  m  01 49 19.029424 +00 04 17.69785
 2019-Jan-16 09:03  m  01 49 19.090882 +00 04 18.28394
 2019-Jan-16 09:04  m  01 49 19.152347 +00 04 18.87002
 2019-Jan-16 09:05  m  01 49 19.213818 +00 04 19.45610
 2019-Jan-16 09:06  m  01 49 19.275296 +00 04 20.04218
 2019-Jan-16 09:07  m  01 49 19.336780 +00 04 20.62825
 2019-Jan-16 09:08  m  01 49 19.398270 +00 04 21.21433
 2019-Jan-16 09:09  m  01 49 19.459767 +00 04 21.80040
 2019-Jan-16 09:10  m  01 49 19.521271 +00 04 22.38647
 2019-Jan-16 09:11  m  01 49 19.582780 +00 04 22.97253
 2019-Jan-16 09:12  m  01 49 19.644297 +00 04 23.55860
 2019-Jan-16 09:13  m  01 49 19.705819 +00 04 24.14466
 2019-Jan-16 09:14  m  01 49 19.767348 +00 04 24.73072
 2019-Jan-16 09:15  m  01 49 19.828884 +00 04 25.31678
 2019-Jan-16 09:16  m  01 49 19.890426 +00 04 25.90283
 2019-Jan-16 09:17  m  01 49 19.951975 +00 04 26.48889
 2019-Jan-16 09:18  m  01 49 20.013530 +00 04 27.07494
 2019-Jan-16 09:19  m  01 49 20.075092 +00 04 27.66099
 2019-Jan-16 09:20  m  01 49 20.136660 +00 04 28.24704
 2019-Jan-16 09:21  m  01 49 20.198235 +00 04 28.83308
 2019-Jan-16 09:22  m  01 49 20.259816 +00 04 29.41912
 2019-Jan-16 09:23  m  01 49 20.321404 +00 04 30.00516
 2019-Jan-16 09:24  m  01 49 20.382999 +00 04 30.59120
 2019-Jan-16 09:25  m  01 49 20.444600 +00 04 31.17724
 2019-Jan-16 09:26  m  01 49 20.506207 +00 04 31.76327
 2019-Jan-16 09:27  m  01 49 20.567822 +00 04 32.34930
 2019-Jan-16 09:28  m  01 49 20.629442 +00 04 32.93533
 2019-Jan-16 09:29  m  01 49 20.691070 +00 04 33.52136
 2019-Jan-16 09:30  m  01 49 20.752704 +00 04 34.10738
 2019-Jan-16 09:31  m  01 49 20.814344 +00 04 34.69340
 2019-Jan-16 09:32  m  01 49 20.875992 +00 04 35.27943
 2019-Jan-16 09:33  m  01 49 20.937646 +00 04 35.86544
 2019-Jan-16 09:34  m  01 49 20.999306 +00 04 36.45146
 2019-Jan-16 09:35  m  01 49 21.060973 +00 04 37.03747
 2019-Jan-16 09:36  m  01 49 21.122647 +00 04 37.62348
 2019-Jan-16 09:37  m  01 49 21.184328 +00 04 38.20949
 2019-Jan-16 09:38  m  01 49 21.246015 +00 04 38.79550
 2019-Jan-16 09:39  m  01 49 21.307709 +00 04 39.38151
 2019-Jan-16 09:40  m  01 49 21.369410 +00 04 39.96751
 2019-Jan-16 09:41  m  01 49 21.431117 +00 04 40.55351
 2019-Jan-16 09:42  m  01 49 21.492831 +00 04 41.13951
 2019-Jan-16 09:43  m  01 49 21.554551 +00 04 41.72550
 2019-Jan-16 09:44  m  01 49 21.616279 +00 04 42.31150
 2019-Jan-16 09:45  m  01 49 21.678013 +00 04 42.89749
 2019-Jan-16 09:46  m  01 49 21.739754 +00 04 43.48348
 2019-Jan-16 09:47  m  01 49 21.801501 +00 04 44.06947
 2019-Jan-16 09:48  m  01 49 21.863255 +00 04 44.65545
 2019-Jan-16 09:49  m  01 49 21.925016 +00 04 45.24144
 2019-Jan-16 09:50  m  01 49 21.986784 +00 04 45.82742
 2019-Jan-16 09:51  m  01 49 22.048559 +00 04 46.41340
 2019-Jan-16 09:52  m  01 49 22.110340 +00 04 46.99937
 2019-Jan-16 09:53  m  01 49 22.172128 +00 04 47.58535
 2019-Jan-16 09:54  m  01 49 22.233923 +00 04 48.17132
 2019-Jan-16 09:55  m  01 49 22.295724 +00 04 48.75729
 2019-Jan-16 09:56  m  01 49 22.357532 +00 04 49.34326
 2019-Jan-16 09:57  m  01 49 22.419347 +00 04 49.92922
 2019-Jan-16 09:58  m  01 49 22.481169 +00 04 50.51519
 2019-Jan-16 09:59  m  01 49 22.542998 +00 04 51.10115
 2019-Jan-16 10:00  m  01 49 22.604833 +00 04 51.68711
 2019-Jan-16 10:01  m  01 49 22.666675 +00 04 52.27306
 2019-Jan-16 10:02  m  01 49 22.728524 +00 04 52.85902
 2019-Jan-16 10:03  m  01 49 22.790380 +00 04 53.44497
 2019-Jan-16 10:04  m  01 49 22.852243 +00 04 54.03092
 2019-Jan-16 10:05  m  01 49 22.914112 +00 04 54.61687
 2019-Jan-16 10:06  m  01 49 22.975988 +00 04 55.20282
 2019-Jan-16 10:07  m  01 49 23.037871 +00 04 55.78876
 2019-Jan-16 10:08  m  01 49 23.099761 +00 04 56.37470
 2019-Jan-16 10:09  m  01 49 23.161658 +00 04 56.96064
 2019-Jan-16 10:10  m  01 49 23.223561 +00 04 57.54658
 2019-Jan-16 10:11  m  01 49 23.285471 +00 04 58.13252
 2019-Jan-16 10:12  m  01 49 23.347388 +00 04 58.71845
 2019-Jan-16 10:13  m  01 49 23.409312 +00 04 59.30438
 2019-Jan-16 10:14  m  01 49 23.471243 +00 04 59.89031
 2019-Jan-16 10:15  m  01 49 23.533180 +00 05 00.47624
 2019-Jan-16 10:16  m  01 49 23.595125 +00 05 01.06216
 2019-Jan-16 10:17  m  01 49 23.657076 +00 05 01.64808
 2019-Jan-16 10:18  m  01 49 23.719034 +00 05 02.23401
 2019-Jan-16 10:19  m  01 49 23.780999 +00 05 02.81992
 2019-Jan-16 10:20  m  01 49 23.842971 +00 05 03.40584
 2019-Jan-16 10:21  m  01 49 23.904949 +00 05 03.99175
